[{"OBJECT_NAME":"STARLINK-3243","OBJECT_ID":"2022-005N","EPOCH":"2026-03-09T21:23:33.734688","MEAN_MOTION":15.08835681,"ECCENTRICITY":0.00015346,"INCLINATION":53.2188,"RA_OF_ASC_NODE":288.1884,"ARG_OF_PERICENTER":110.6784,"MEAN_ANOMALY":249.4373,"EPHEMERIS_TYPE":0,"CLASSIFICATION_TYPE":"U","NORAD_CAT_ID":51116,"ELEMENT_SET_NO":999,"REV_AT_EPOCH":22890,"BSTAR":-2.835398e-5,"MEAN_MOTION_DOT":-7.39e-6,"MEAN_MOTION_DDOT":0},{"OBJECT_NAME":"AISAT","OBJECT_ID":"2014-034B","EPOCH":"2026-03-09T16:29:04.722144","MEAN_MOTION":15.06703825,"ECCENTRICITY":0.00089151,"INCLINATION":98.2441,"RA_OF_ASC_NODE":333.9816,"ARG_OF_PERICENTER":189.0234,"MEAN_ANOMALY":171.0832,"EPHEMERIS_TYPE":0,"CLASSIFICATION_TYPE":"U","NORAD_CAT_ID":40054,"ELEMENT_SET_NO":999,"REV_AT_EPOCH":63221,"BSTAR":0.00094770343,"MEAN_MOTION_DOT":0.00014038,"MEAN_MOTION_DDOT":0}]
